{"type": "FeatureCollection", "features": [ {"type": "Feature", "properties": {"norad_id": 34141, "name": "COSMOS 2251 DEB", "group": "cosmos-2251-debris", "lat": 50.22267300199874, "lon": 25.37177133266876, "alt_km": 695.3008006967466, "timestamp": "2025-12-25T07:41:10.117205+00:00", "meta": {"OBJECT_NAME": "COSMOS 2251 DEB", "OBJECT_ID": "1993-036LN", "EPOCH": "2025-12-24T10:27:38.365344", "MEAN_MOTION": 14.49353671, "ECCENTRICITY": 0.0046488, "INCLINATION": 74.0114, "RA_OF_ASC_NODE": 6.8871, "ARG_OF_PERICENTER": 88.8978, "MEAN_ANOMALY": 31.9192, "EPHEMERIS_TYPE": 0, "CLASSIFICATION_TYPE": "U", "NORAD_CAT_ID": 34141, "ELEMENT_SET_NO": 999, "REV_AT_EPOCH": 87863, "BSTAR": 0.0014481355, "MEAN_MOTION_DOT": 5.586e-05, "MEAN_MOTION_DDOT": 0}, "tle": {"line1": "1 34141U 93036LN  25358.43586071  .00005586  00000+0  14481-2 0  9994", "line2": "2 34141  74.0114   6.8871 0046488  88.8978  31.9192 14.49353671878630"}}, "geometry": {"type": "Point", "coordinates": [25.37177133266876, 50.22267300199874]}}, {"type": "Feature", "properties": {"norad_id": 34270, "name": "COSMOS 2251 DEB", "group": "cosmos-2251-debris", "lat": 8.955346986971982, "lon": -75.02698251261342, "alt_km": 661.5286576506387, "timestamp": "2025-12-25T07:41:10.117216+00:00", "meta": {"OBJECT_NAME": "COSMOS 2251 DEB", "OBJECT_ID": "1993-036LQ", "EPOCH": "2025-12-24T21:48:44.040384", "MEAN_MOTION": 14.65255492, "ECCENTRICITY": 0.00481474, "INCLINATION": 74.0116, "RA_OF_ASC_NODE": 283.1759, "ARG_OF_PERICENTER": 72.2363, "MEAN_ANOMALY": 288.4051, "EPHEMERIS_TYPE": 0, "CLASSIFICATION_TYPE": "U", "NORAD_CAT_ID": 34270, "ELEMENT_SET_NO": 999, "REV_AT_EPOCH": 89274, "BSTAR": 0.00063452067, "MEAN_MOTION_DOT": 3.448e-05, "MEAN_MOTION_DDOT": 0}, "tle": {"line1": "1 34270U 93036LQ  25358.90884306  .00003448  00000+0  63452-3 0  9999", "line2": "2 34270  74.0116 283.1759 0048147  72.2363 288.4051 14.65255492892740"}}, "geometry": {"type": "Point", "coordinates": [-75.02698251261342, 8.955346986971982]}}, {"type": "Feature", "properties": {"norad_id": 34271, "name": "COSMOS 2251 DEB", "group": "cosmos-2251-debris", "lat": -31.345983114251705, "lon": 4.932747494494947, "alt_km": 651.1042666402, "timestamp": "2025-12-25T07:41:10.117226+00:00", "meta": {"OBJECT_NAME": "COSMOS 2251 DEB", "OBJECT_ID": "1993-036LR", "EPOCH": "2025-12-23T18:54:03.787776", "MEAN_MOTION": 14.70993585, "ECCENTRICITY": 0.00182001, "INCLINATION": 74.0195, "RA_OF_ASC_NODE": 177.8583, "ARG_OF_PERICENTER": 231.0975, "MEAN_ANOMALY": 148.2753, "EPHEMERIS_TYPE": 0, "CLASSIFICATION_TYPE": "U", "NORAD_CAT_ID": 34271, "ELEMENT_SET_NO": 999, "REV_AT_EPOCH": 88397, "BSTAR": 0.0021218161, "MEAN_MOTION_DOT": 0.00013043, "MEAN_MOTION_DDOT": 0}, "tle": {"line1": "1 34271U 93036LR  25357.78754384  .00013043  00000+0  21218-2 0  9992", "line2": "2 34271  74.0195 177.8583 0018200 231.0975 148.2753 14.70993585883978"}}, "geometry": {"type": "Point", "coordinates": [4.932747494494947, -31.345983114251705]}}, {"type": "Feature", "properties": {"norad_id": 34273, "name": "COSMOS 2251 DEB", "group": "cosmos-2251-debris", "lat": 21.738834265270835, "lon": -123.18126606282098, "alt_km": 680.2132017700651, "timestamp": "2025-12-25T07:41:10.117236+00:00", "meta": {"OBJECT_NAME": "COSMOS 2251 DEB", "OBJECT_ID": "1993-036LT", "EPOCH": "2025-12-24T08:32:43.531296", "MEAN_MOTION": 14.61323579, "ECCENTRICITY": 0.00134335, "INCLINATION": 74.0358, "RA_OF_ASC_NODE": 65.2158, "ARG_OF_PERICENTER": 190.7253, "MEAN_ANOMALY": 296.2534, "EPHEMERIS_TYPE": 0, "CLASSIFICATION_TYPE": "U", "NORAD_CAT_ID": 34273, "ELEMENT_SET_NO": 999, "REV_AT_EPOCH": 88791, "BSTAR": 0.00090180597, "MEAN_MOTION_DOT": 4.433e-05, "MEAN_MOTION_DDOT": 0}, "tle": {"line1": "1 34273U 93036LT  25358.35605939  .00004433  00000+0  90181-3 0  9998", "line2": "2 34273  74.0358  65.2158 0013433 190.7253 296.2534 14.61323579887911"}}, "geometry": {"type": "Point", "coordinates": [-123.18126606282098, 21.738834265270835]}}, {"type": "Feature", "properties": {"norad_id": 34274, "name": "COSMOS 2251 DEB", "group": "cosmos-2251-debris", "lat": 39.12453152378278, "lon": 57.8203156000417, "alt_km": 687.2942451779318, "timestamp": "2025-12-25T07:41:10.117246+00:00", "meta": {"OBJECT_NAME": "COSMOS 2251 DEB", "OBJECT_ID": "1993-036LU", "EPOCH": "2025-12-24T20:32:54.155904", "MEAN_MOTION": 14.64913316, "ECCENTRICITY": 0.00213212, "INCLINATION": 74.0036, "RA_OF_ASC_NODE": 45.2207, "ARG_OF_PERICENTER": 194.0957, "MEAN_ANOMALY": 280.7564, "EPHEMERIS_TYPE": 0, "CLASSIFICATION_TYPE": "U", "NORAD_CAT_ID": 34274, "ELEMENT_SET_NO": 999, "REV_AT_EPOCH": 88853, "BSTAR": 0.001023646, "MEAN_MOTION_DOT": 5.466e-05, "MEAN_MOTION_DDOT": 0}, "tle": {"line1": "1 34274U 93036LU  25358.85618236  .00005466  00000+0  10236-2 0  9997", "line2": "2 34274  74.0036  45.2207 0021321 194.0957 280.7564 14.64913316888538"}}, "geometry": {"type": "Point", "coordinates": [57.8203156000417, 39.12453152378278]}}, {"type": "Feature", "properties": {"norad_id": 34276, "name": "COSMOS 2251 DEB", "group": "cosmos-2251-debris", "lat": -4.2244986422827555, "lon": 60.18919997272256, "alt_km": 718.4620931215832, "timestamp": "2025-12-25T07:41:10.117256+00:00", "meta": {"OBJECT_NAME": "COSMOS 2251 DEB", "OBJECT_ID": "1993-036LW", "EPOCH": "2025-12-24T14:09:10.901664", "MEAN_MOTION": 14.57301184, "ECCENTRICITY": 0.00221321, "INCLINATION": 74.0232, "RA_OF_ASC_NODE": 62.7903, "ARG_OF_PERICENTER": 208.4248, "MEAN_ANOMALY": 276.0759, "EPHEMERIS_TYPE": 0, "CLASSIFICATION_TYPE": "U", "NORAD_CAT_ID": 34276, "ELEMENT_SET_NO": 999, "REV_AT_EPOCH": 88765, "BSTAR": 0.00069145722, "MEAN_MOTION_DOT": 3.111e-05, "MEAN_MOTION_DDOT": 0}, "tle": {"line1": "1 34276U 93036LW  25358.58970951  .00003111  00000+0  69146-3 0  9994", "line2": "2 34276  74.0232  62.7903 0022132 208.4248 276.0759 14.57301184887651"}}, "geometry": {"type": "Point", "coordinates": [60.18919997272256, -4.2244986422827555]}}, {"type": "Feature", "properties": {"norad_id": 34297, "name": "COSMOS 2251 DEB", "group": "cosmos-2251-debris", "lat": 24.773565587978656, "lon": 73.54705323790697, "alt_km": 781.1568014137629, "timestamp": "2025-12-25T07:41:10.117266+00:00", "meta": {"OBJECT_NAME": "COSMOS 2251 DEB", "OBJECT_ID": "1993-036MT", "EPOCH": "2025-12-24T21:16:52.152672", "MEAN_MOTION": 14.3663932, "ECCENTRICITY": 0.00177369, "INCLINATION": 74.0486, "RA_OF_ASC_NODE": 261.9278, "ARG_OF_PERICENTER": 328.4093, "MEAN_ANOMALY": 104.3464, "EPHEMERIS_TYPE": 0, "CLASSIFICATION_TYPE": "U", "NORAD_CAT_ID": 34297, "ELEMENT_SET_NO": 999, "REV_AT_EPOCH": 88239, "BSTAR": 0.00013341498, "MEAN_MOTION_DOT": 3.67e-06, "MEAN_MOTION_DDOT": 0}, "tle": {"line1": "1 34297U 93036MT  25358.88671473  .00000367  00000+0  13341-3 0  9993", "line2": "2 34297  74.0486 261.9278 0017736 328.4093 104.3464 14.36639320882393"}}, "geometry": {"type": "Point", "coordinates": [73.54705323790697, 24.773565587978656]}}, {"type": "Feature", "properties": {"norad_id": 34301, "name": "COSMOS 2251 DEB", "group": "cosmos-2251-debris", "lat": 54.92206649242462, "lon": -62.41945088443757, "alt_km": 606.6601932179356, "timestamp": "2025-12-25T07:41:10.117275+00:00", "meta": {"OBJECT_NAME": "COSMOS 2251 DEB", "OBJECT_ID": "1993-036MX", "EPOCH": "2025-12-24T16:38:23.984160", "MEAN_MOTION": 14.85135412, "ECCENTRICITY": 0.00099701, "INCLINATION": 74.0058, "RA_OF_ASC_NODE": 142.9348, "ARG_OF_PERICENTER": 206.3023, "MEAN_ANOMALY": 164.9196, "EPHEMERIS_TYPE": 0, "CLASSIFICATION_TYPE": "U", "NORAD_CAT_ID": 34301, "ELEMENT_SET_NO": 999, "REV_AT_EPOCH": 88578, "BSTAR": 0.003771347, "MEAN_MOTION_DOT": 0.00032427, "MEAN_MOTION_DDOT": 0}, "tle": {"line1": "1 34301U 93036MX  25358.69333315  .00032427  00000+0  37713-2 0  9998", "line2": "2 34301  74.0058 142.9348 0009970 206.3023 164.9196 14.85135412885785"}}, "geometry": {"type": "Point", "coordinates": [-62.41945088443757, 54.92206649242462]}}, {"type": "Feature", "properties": {"norad_id": 34302, "name": "COSMOS 2251 DEB", "group": "cosmos-2251-debris", "lat": -46.030863735878334, "lon": 83.464308393034, "alt_km": 710.2362222228448, "timestamp": "2025-12-25T07:41:10.117285+00:00", "meta": {"OBJECT_NAME": "COSMOS 2251 DEB", "OBJECT_ID": "1993-036MY", "EPOCH": "2025-12-24T17:27:18.249984", "MEAN_MOTION": 14.39374231, "ECCENTRICITY": 0.0079472, "INCLINATION": 74.1782, "RA_OF_ASC_NODE": 101.6441, "ARG_OF_PERICENTER": 313.5556, "MEAN_ANOMALY": 166.7861, "EPHEMERIS_TYPE": 0, "CLASSIFICATION_TYPE": "U", "NORAD_CAT_ID": 34302, "ELEMENT_SET_NO": 999, "REV_AT_EPOCH": 87893, "BSTAR": 0.00057787559, "MEAN_MOTION_DOT": 1.838e-05, "MEAN_MOTION_DDOT": 0}, "tle": {"line1": "1 34302U 93036MY  25358.72729456  .00001838  00000+0  57788-3 0  9995", "line2": "2 34302  74.1782 101.6441 0079472 313.5556 166.7861 14.39374231878934"}}, "geometry": {"type": "Point", "coordinates": [83.464308393034, -46.030863735878334]}}, {"type": "Feature", "properties": {"norad_id": 34303, "name": "COSMOS 2251 DEB", "group": "cosmos-2251-debris", "lat": 69.83506853837831, "lon": 32.83306891366664, "alt_km": 658.7778710635612, "timestamp": "2025-12-25T07:41:10.117296+00:00", "meta": {"OBJECT_NAME": "COSMOS 2251 DEB", "OBJECT_ID": "1993-036MZ", "EPOCH": "2025-12-24T19:57:51.943680", "MEAN_MOTION": 14.54611261, "ECCENTRICITY": 0.0135608, "INCLINATION": 74.0051, "RA_OF_ASC_NODE": 265.118, "ARG_OF_PERICENTER": 40.471, "MEAN_ANOMALY": 24.0163, "EPHEMERIS_TYPE": 0, "CLASSIFICATION_TYPE": "U", "NORAD_CAT_ID": 34303, "ELEMENT_SET_NO": 999, "REV_AT_EPOCH": 88138, "BSTAR": 0.0015124947, "MEAN_MOTION_DOT": 7.283e-05, "MEAN_MOTION_DDOT": 0}, "tle": {"line1": "1 34303U 93036MZ  25358.83185120  .00007283  00000+0  15125-2 0  9990", "line2": "2 34303  74.0051 265.1180 0135608  40.4710  24.0163 14.54611261881389"}}, "geometry": {"type": "Point", "coordinates": [32.83306891366664, 69.83506853837831]}}]}